[{"OBJECT_NAME":"STARLINK-35054","OBJECT_ID":"2025-191E","EPOCH":"2026-03-09T14:45:26.376768","MEAN_MOTION":15.05645356,"ECCENTRICITY":0.0002304,"INCLINATION":97.6016,"RA_OF_ASC_NODE":301.384,"ARG_OF_PERICENTER":92.8669,"MEAN_ANOMALY":267.2821,"EPHEMERIS_TYPE":0,"CLASSIFICATION_TYPE":"U","NORAD_CAT_ID":65383,"ELEMENT_SET_NO":999,"REV_AT_EPOCH":3025,"BSTAR":0.00011497,"MEAN_MOTION_DOT":1.598e-5,"MEAN_MOTION_DDOT":0},{"OBJECT_NAME":"UNKNOWN","OBJECT_ID":"","EPOCH":"2026-03-08T12:59:39.172704","MEAN_MOTION":15.0131728,"ECCENTRICITY":0.00204305,"INCLINATION":86.3534,"RA_OF_ASC_NODE":358.469,"ARG_OF_PERICENTER":121.5673,"MEAN_ANOMALY":238.7558,"EPHEMERIS_TYPE":0,"CLASSIFICATION_TYPE":"U","NORAD_CAT_ID":270086,"ELEMENT_SET_NO":999,"REV_AT_EPOCH":9441,"BSTAR":0.0053525659,"MEAN_MOTION_DOT":0.00069778,"MEAN_MOTION_DDOT":0}]
